start=new Date('2022-09-19T00:00:00.000Z').valueOf();
sats=[{"OBJECT_TYPE":"PAYLOAD","LAUNCH_DATE":"2020-08-07","TLE_LINE2":"2 46061  53.0555  48.9022 0001557  74.5427 285.5734 15.06399675117918","MEAN_ANOMALY":"285.5734","RCS_SIZE":"LARGE","NORAD_CAT_ID":"46061","MEAN_MOTION_DOT":"0.00002764","TLE_LINE1":"1 46061U 20055AL  22261.68930673  .00002764  00000-0  20436-3 0  9991","MEAN_ELEMENT_THEORY":"SGP4","ARG_OF_PERICENTER":"74.5427","PERIAPSIS":"546.136","DECAY_DATE":null,"EPHEMERIS_TYPE":"0","MEAN_MOTION":"15.06399675","CLASSIFICATION_TYPE":"U","REV_AT_EPOCH":"11791","REF_FRAME":"TEME","INCLINATION":"53.0555","GP_ID":"212963036","OBJECT_NAME":"STARLINK-1573","APOAPSIS":"548.293","ELEMENT_SET_NO":"999","PERIOD":"95.592","TIME_SYSTEM":"UTC","MEAN_MOTION_DDOT":"0.0000000000000","BSTAR":"0.00020436000000","CENTER_NAME":"EARTH","SITE":"AFETR","OBJECT_ID":"2020-055AL","RA_OF_ASC_NODE":"48.9022","ECCENTRICITY":"0.00015570","SEMIMAJOR_AXIS":"6925.350","FILE":"3577422","COUNTRY_CODE":"US","EPOCH":"2022-09-18T16:32:36.101472"},{"CENTER_NAME":"EARTH","BSTAR":"0.00007524200000","MEAN_MOTION_DDOT":"0.0000000000000","APOAPSIS":"548.313","TIME_SYSTEM":"UTC","PERIOD":"95.593","ELEMENT_SET_NO":"999","OBJECT_NAME":"STARLINK-1574","GP_ID":"212963289","INCLINATION":"53.0552","REF_FRAME":"TEME","REV_AT_EPOCH":"11789","MEAN_MOTION":"15.06384252","CLASSIFICATION_TYPE":"U","EPOCH":"2022-09-18T18:55:55.348320","COUNTRY_CODE":"US","FILE":"3577422","SEMIMAJOR_AXIS":"6925.397","ECCENTRICITY":"0.00015180","SITE":"AFETR","RA_OF_ASC_NODE":"48.4367","OBJECT_ID":"2020-055AM","MEAN_MOTION_DOT":"0.00000839","NORAD_CAT_ID":"46062","RCS_SIZE":"LARGE","MEAN_ANOMALY":"289.0319","TLE_LINE2":"2 46062  53.0552  48.4367 0001518  71.0834 289.0319 15.06384252117894","LAUNCH_DATE":"2020-08-07","OBJECT_TYPE":"PAYLOAD","EPHEMERIS_TYPE":"0","DECAY_DATE":null,"PERIAPSIS":"546.211","ARG_OF_PERICENTER":"71.0834","MEAN_ELEMENT_THEORY":"SGP4","TLE_LINE1":"1 46062U 20055AM  22261.78883505  .00000839  00000-0  75242-4 0  9991"},{"MEAN_ANOMALY":"271.7886","RCS_SIZE":"LARGE","OBJECT_TYPE":"PAYLOAD","LAUNCH_DATE":"2020-08-07","TLE_LINE2":"2 46063  53.0551  48.7670 0001189  88.3239 271.7886 15.06393039117911","MEAN_MOTION_DOT":"0.00001580","NORAD_CAT_ID":"46063","MEAN_ELEMENT_THEORY":"SGP4","TLE_LINE1":"1 46063U 20055AN  22261.71880600  .00001580  00000-0  12495-3 0  9992","EPHEMERIS_TYPE":"0","ARG_OF_PERICENTER":"88.3239","PERIAPSIS":"546.411","DECAY_DATE":null,"REV_AT_EPOCH":"11791","REF_FRAME":"TEME","INCLINATION":"53.0551","GP_ID":"212962043","CLASSIFICATION_TYPE":"U","MEAN_MOTION":"15.06393039","MEAN_MOTION_DDOT":"0.0000000000000","BSTAR":"0.00012495000000","CENTER_NAME":"EARTH","OBJECT_NAME":"STARLINK-1577","APOAPSIS":"548.058","PERIOD":"95.593","ELEMENT_SET_NO":"999","TIME_SYSTEM":"UTC","ECCENTRICITY":"0.00011890","RA_OF_ASC_NODE":"48.7670","SITE":"AFETR","OBJECT_ID":"2020-055AN","EPOCH":"2022-09-18T17:15:04.838400","SEMIMAJOR_AXIS":"6925.370","FILE":"3577422","COUNTRY_CODE":"US"},{"MEAN_ANOMALY":"298.5540","RCS_SIZE":"LARGE","OBJECT_TYPE":"PAYLOAD","TLE_LINE2":"2 46064  53.0568  48.3180 0001369  61.5587 298.5540 15.06402023117931","LAUNCH_DATE":"2020-08-07","MEAN_MOTION_DOT":"0.00000312","NORAD_CAT_ID":"46064","MEAN_ELEMENT_THEORY":"SGP4","TLE_LINE1":"1 46064U 20055AP  22261.81830794  .00000312  00000-0  39840-4 0  9999","EPHEMERIS_TYPE":"0","ARG_OF_PERICENTER":"61.5587","DECAY_DATE":null,"PERIAPSIS":"546.259","REF_FRAME":"TEME","REV_AT_EPOCH":"11793","GP_ID":"212961793","INCLINATION":"53.0568","CLASSIFICATION_TYPE":"U","MEAN_MOTION":"15.06402023","MEAN_MOTION_DDOT":"0.0000000000000","CENTER_NAME":"EARTH","BSTAR":"0.00003984000000","OBJECT_NAME":"STARLINK-1583","APOAPSIS":"548.155","PERIOD":"95.592","TIME_SYSTEM":"UTC","ELEMENT_SET_NO":"999","ECCENTRICITY":"0.00013690","RA_OF_ASC_NODE":"48.3180","SITE":"AFETR","OBJECT_ID":"2020-055AP","EPOCH":"2022-09-18T19:38:21.806016","FILE":"3577422","SEMIMAJOR_AXIS":"6925.342","COUNTRY_CODE":"US"},{"MEAN_ANOMALY":"285.0578","RCS_SIZE":"LARGE","OBJECT_TYPE":"PAYLOAD","LAUNCH_DATE":"2020-08-07","TLE_LINE2":"2 46065  53.0571  28.6479 0001387  75.0564 285.0578 15.06396038118181","MEAN_MOTION_DOT":"0.00001820","NORAD_CAT_ID":"46065","MEAN_ELEMENT_THEORY":"SGP4","TLE_LINE1":"1 46065U 20055AQ  22261.74549163  .00001820  00000-0  14104-3 0  9999","EPHEMERIS_TYPE":"0","ARG_OF_PERICENTER":"75.0564","PERIAPSIS":"546.265","DECAY_DATE":null,"REV_AT_EPOCH":"11818","REF_FRAME":"TEME","INCLINATION":"53.0571","GP_ID":"212962538","CLASSIFICATION_TYPE":"U","MEAN_MOTION":"15.06396038","MEAN_MOTION_DDOT":"0.0000000000000","BSTAR":"0.00014104000000","CENTER_NAME":"EARTH","OBJECT_NAME":"STARLINK-1515","TIME_SYSTEM":"UTC","APOAPSIS":"548.186","PERIOD":"95.592","ELEMENT_SET_NO":"999","ECCENTRICITY":"0.00013870","SITE":"AFETR","OBJECT_ID":"2020-055AQ","RA_OF_ASC_NODE":"28.6479","EPOCH":"2022-09-18T17:53:30.476832","SEMIMAJOR_AXIS":"6925.361","FILE":"3577422","COUNTRY_CODE":"US"},{"COUNTRY_CODE":"US","SEMIMAJOR_AXIS":"6925.334","FILE":"3577422","EPOCH":"2022-09-18T18:00:10.194336","RA_OF_ASC_NODE":"28.6350","SITE":"AFETR","OBJECT_ID":"2020-055AR","ECCENTRICITY":"0.00013890","APOAPSIS":"548.161","ELEMENT_SET_NO":"999","PERIOD":"95.592","TIME_SYSTEM":"UTC","OBJECT_NAME":"STARLINK-1525","BSTAR":"0.00020776000000","CENTER_NAME":"EARTH","MEAN_MOTION_DDOT":"0.0000000000000","CLASSIFICATION_TYPE":"U","MEAN_MOTION":"15.06404643","INCLINATION":"53.0553","GP_ID":"212962790","REV_AT_EPOCH":"11819","REF_FRAME":"TEME","PERIAPSIS":"546.237","DECAY_DATE":null,"ARG_OF_PERICENTER":"76.4809","EPHEMERIS_TYPE":"0","TLE_LINE1":"1 46066U 20055AR  22261.75011799  .00002815  00000-0  20776-3 0  9997","MEAN_ELEMENT_THEORY":"SGP4","NORAD_CAT_ID":"46066","MEAN_MOTION_DOT":"0.00002815","LAUNCH_DATE":"2020-08-07","TLE_LINE2":"2 46066  53.0553  28.6350 0001389  76.4809 283.6335 15.06404643118197","OBJECT_TYPE":"PAYLOAD","RCS_SIZE":"LARGE","MEAN_ANOMALY":"283.6335"},{"EPHEMERIS_TYPE":"0","PERIAPSIS":"546.393","DECAY_DATE":null,"ARG_OF_PERICENTER":"70.0420","MEAN_ELEMENT_THEORY":"SGP4","TLE_LINE1":"1 46067U 20055AS  22261.75285127  .00001319  00000-0  10745-3 0  9999","MEAN_MOTION_DOT":"0.00001319","NORAD_CAT_ID":"46067","RCS_SIZE":"LARGE","MEAN_ANOMALY":"290.0696","LAUNCH_DATE":"2020-08-07","TLE_LINE2":"2 46067  53.0566  28.6003 0001182  70.0420 290.0696 15.06400679118206","OBJECT_TYPE":"PAYLOAD","EPOCH":"2022-09-18T18:04:06.349728","COUNTRY_CODE":"US","SEMIMAJOR_AXIS":"6925.346","FILE":"3577422","ECCENTRICITY":"0.00011820","RA_OF_ASC_NODE":"28.6003","SITE":"AFETR","OBJECT_ID":"2020-055AS","BSTAR":"0.00010745000000","CENTER_NAME":"EARTH","MEAN_MOTION_DDOT":"0.0000000000000","TIME_SYSTEM":"UTC","APOAPSIS":"548.030","PERIOD":"95.592","ELEMENT_SET_NO":"999","OBJECT_NAME":"STARLINK-1529","INCLINATION":"53.0566","GP_ID":"212961544","REV_AT_EPOCH":"11820","REF_FRAME":"TEME","CLASSIFICATION_TYPE":"U","MEAN_MOTION":"15.06400679"},{"REV_AT_EPOCH":"11818","REF_FRAME":"TEME","INCLINATION":"53.0578","GP_ID":"212962293","MEAN_MOTION":"15.06401060","CLASSIFICATION_TYPE":"U","MEAN_MOTION_DDOT":"0.0000000000000","BSTAR":"0.00021474000000","CENTER_NAME":"EARTH","OBJECT_NAME":"STARLINK-1532","PERIOD":"95.592","APOAPSIS":"548.293","TIME_SYSTEM":"UTC","ELEMENT_SET_NO":"999","ECCENTRICITY":"0.00015640","SITE":"AFETR","OBJECT_ID":"2020-055AT","RA_OF_ASC_NODE":"29.1511","EPOCH":"2022-09-18T15:08:57.828768","SEMIMAJOR_AXIS":"6925.345","FILE":"3577422","COUNTRY_CODE":"US","MEAN_ANOMALY":"289.0635","RCS_SIZE":"LARGE","OBJECT_TYPE":"PAYLOAD","LAUNCH_DATE":"2020-08-07","TLE_LINE2":"2 46068  53.0578  29.1511 0001564  71.0524 289.0635 15.06401060118183","MEAN_MOTION_DOT":"0.00002919","NORAD_CAT_ID":"46068","MEAN_ELEMENT_THEORY":"SGP4","TLE_LINE1":"1 46068U 20055AT  22261.63122487  .00002919  00000-0  21474-3 0  9994","EPHEMERIS_TYPE":"0","ARG_OF_PERICENTER":"71.0524","PERIAPSIS":"546.127","DECAY_DATE":null},{"GP_ID":"212963037","INCLINATION":"53.0554","REF_FRAME":"TEME","REV_AT_EPOCH":"11821","CLASSIFICATION_TYPE":"U","MEAN_MOTION":"15.06397435","CENTER_NAME":"EARTH","BSTAR":"0.00016240000000","MEAN_MOTION_DDOT":"0.0000000000000","PERIOD":"95.592","APOAPSIS":"548.227","TIME_SYSTEM":"UTC","ELEMENT_SET_NO":"999","OBJECT_NAME":"STARLINK-1533","ECCENTRICITY":"0.00014520","SITE":"AFETR","OBJECT_ID":"2020-055AU","RA_OF_ASC_NODE":"28.4979","EPOCH":"2022-09-18T18:42:38.703168","COUNTRY_CODE":"US","FILE":"3577422","SEMIMAJOR_AXIS":"6925.356","RCS_SIZE":"LARGE","MEAN_ANOMALY":"281.2798","TLE_LINE2":"2 46069  53.0554  28.4979 0001452  78.8354 281.2798 15.06397435118218","LAUNCH_DATE":"2020-08-07","OBJECT_TYPE":"PAYLOAD","MEAN_MOTION_DOT":"0.00002138","NORAD_CAT_ID":"46069","MEAN_ELEMENT_THEORY":"SGP4","TLE_LINE1":"1 46069U 20055AU  22261.77961462  .00002138  00000-0  16240-3 0  9992","EPHEMERIS_TYPE":"0","DECAY_DATE":null,"PERIAPSIS":"546.216","ARG_OF_PERICENTER":"78.8354"},{"NORAD_CAT_ID":"46070","MEAN_MOTION_DOT":"0.00001718","OBJECT_TYPE":"PAYLOAD","TLE_LINE2":"2 46070  53.0563  28.4291 0001415  96.4565 263.6585 15.06398465118218","LAUNCH_DATE":"2020-08-07","MEAN_ANOMALY":"263.6585","RCS_SIZE":"LARGE","ARG_OF_PERICENTER":"96.4565","DECAY_DATE":null,"PERIAPSIS":"546.238","EPHEMERIS_TYPE":"0","TLE_LINE1":"1 46070U 20055AV  22261.79436044  .00001718  00000-0  13423-3 0  9992","MEAN_ELEMENT_THEORY":"SGP4","OBJECT_NAME":"STARLINK-1536","TIME_SYSTEM":"UTC","APOAPSIS":"548.198","PERIOD":"95.592","ELEMENT_SET_NO":"999","MEAN_MOTION_DDOT":"0.0000000000000","CENTER_NAME":"EARTH","BSTAR":"0.00013423000000","MEAN_MOTION":"15.06398465","CLASSIFICATION_TYPE":"U","REF_FRAME":"TEME","REV_AT_EPOCH":"11821","GP_ID":"212963290","INCLINATION":"53.0563","FILE":"3577422","SEMIMAJOR_AXIS":"6925.353","COUNTRY_CODE":"US","EPOCH":"2022-09-18T19:03:52.742016","RA_OF_ASC_NODE":"28.4291","SITE":"AFETR","OBJECT_ID":"2020-055AV","ECCENTRICITY":"0.00014150"}];
